{
  "type": "FeatureCollection",
  "features": [
    {
      "type": "Feature",
      "properties": {
        "norad_id": 33972,
        "name": "COSMOS 2251 DEB",
        "group": "cosmos-2251-debris",
        "lat": 8.019840087479194,
        "lon": 165.14403719824466,
        "alt_km": 704.9862448143367,
        "timestamp": "2025-12-27T20:30:59.673163+00:00",
        "meta_object_name": "COSMOS 2251 DEB",
        "meta_object_id": "1993-036FF",
        "meta_epoch": "2025-12-26T21:46:53.946048",
        "meta_mean_motion": 14.36338237,
        "meta_eccentricity": 0.012408,
        "meta_inclination": 73.9944,
        "meta_ra_of_asc_node": 164.5705,
        "meta_arg_of_pericenter": 329.1123,
        "meta_mean_anomaly": 182.105,
        "meta_ephemeris_type": 0,
        "meta_classification_type": "U",
        "meta_norad_cat_id": 33972,
        "meta_element_set_no": 999,
        "meta_rev_at_epoch": 87277,
        "meta_bstar": 0.0017751,
        "meta_mean_motion_dot": 5.646e-05,
        "meta_mean_motion_ddot": 0,
        "tle_line1": "1 33972U 93036FF  25360.90756882  .00005646  00000+0  17751-2 0  9999",
        "tle_line2": "2 33972  73.9944 164.5705 0124080 329.1123 182.1050 14.36338237872774"
      },
      "geometry": {
        "type": "Point",
        "coordinates": [
          165.14403719824466,
          8.019840087479194
        ]
      }
    },
    {
      "type": "Feature",
      "properties": {
        "norad_id": 33973,
        "name": "COSMOS 2251 DEB",
        "group": "cosmos-2251-debris",
        "lat": -67.54303162478618,
        "lon": -61.39708760806279,
        "alt_km": 713.932853469054,
        "timestamp": "2025-12-27T20:30:59.673174+00:00",
        "meta_object_name": "COSMOS 2251 DEB",
        "meta_object_id": "1993-036FG",
        "meta_epoch": "2025-12-27T09:45:28.259712",
        "meta_mean_motion": 14.45407015,
        "meta_eccentricity": 0.0047365,
        "meta_inclination": 74.0087,
        "meta_ra_of_asc_node": 75.5085,
        "meta_arg_of_pericenter": 251.2545,
        "meta_mean_anomaly": 191.0411,
        "meta_ephemeris_type": 0,
        "meta_classification_type": "U",
        "meta_norad_cat_id": 33973,
        "meta_element_set_no": 999,
        "meta_rev_at_epoch": 88812,
        "meta_bstar": 0.00016834,
        "meta_mean_motion_dot": 5.72e-06,
        "meta_mean_motion_ddot": 0,
        "tle_line1": "1 33973U 93036FG  25361.40657708  .00000572  00000+0  16834-3 0  9998",
        "tle_line2": "2 33973  74.0087  75.5085 0047365 251.2545 191.0411 14.45407015888127"
      },
      "geometry": {
        "type": "Point",
        "coordinates": [
          -61.39708760806279,
          -67.54303162478618
        ]
      }
    },
    {
      "type": "Feature",
      "properties": {
        "norad_id": 33975,
        "name": "COSMOS 2251 DEB",
        "group": "cosmos-2251-debris",
        "lat": -71.50178521566636,
        "lon": -2.4411809400472797,
        "alt_km": 897.7059622983334,
        "timestamp": "2025-12-27T20:30:59.673184+00:00",
        "meta_object_name": "COSMOS 2251 DEB",
        "meta_object_id": "1993-036FJ",
        "meta_epoch": "2025-12-27T12:20:23.975232",
        "meta_mean_motion": 14.00553511,
        "meta_eccentricity": 0.0190707,
        "meta_inclination": 73.8015,
        "meta_ra_of_asc_node": 58.4818,
        "meta_arg_of_pericenter": 189.0767,
        "meta_mean_anomaly": 170.6904,
        "meta_ephemeris_type": 0,
        "meta_classification_type": "U",
        "meta_norad_cat_id": 33975,
        "meta_element_set_no": 999,
        "meta_rev_at_epoch": 86036,
        "meta_bstar": 0.00052225,
        "meta_mean_motion_dot": 8.83e-06,
        "meta_mean_motion_ddot": 0,
        "tle_line1": "1 33975U 93036FJ  25361.51416638  .00000883  00000+0  52225-3 0  9996",
        "tle_line2": "2 33975  73.8015  58.4818 0190707 189.0767 170.6904 14.00553511860364"
      },
      "geometry": {
        "type": "Point",
        "coordinates": [
          -2.4411809400472797,
          -71.50178521566636
        ]
      }
    },
    {
      "type": "Feature",
      "properties": {
        "norad_id": 33980,
        "name": "COSMOS 2251 DEB",
        "group": "cosmos-2251-debris",
        "lat": 32.14768923075563,
        "lon": 40.95979208408607,
        "alt_km": 709.8647500751304,
        "timestamp": "2025-12-27T20:30:59.673194+00:00",
        "meta_object_name": "COSMOS 2251 DEB",
        "meta_object_id": "1993-036FP",
        "meta_epoch": "2025-12-27T12:24:15.159168",
        "meta_mean_motion": 14.58732259,
        "meta_eccentricity": 0.002774,
        "meta_inclination": 74.0211,
        "meta_ra_of_asc_node": 31.2296,
        "meta_arg_of_pericenter": 173.5674,
        "meta_mean_anomaly": 246.0027,
        "meta_ephemeris_type": 0,
        "meta_classification_type": "U",
        "meta_norad_cat_id": 33980,
        "meta_element_set_no": 999,
        "meta_rev_at_epoch": 89010,
        "meta_bstar": 0.00061983,
        "meta_mean_motion_dot": 2.88e-05,
        "meta_mean_motion_ddot": 0,
        "tle_line1": "1 33980U 93036FP  25361.51684212  .00002880  00000+0  61983-3 0  9997",
        "tle_line2": "2 33980  74.0211  31.2296 0027740 173.5674 246.0027 14.58732259890101"
      },
      "geometry": {
        "type": "Point",
        "coordinates": [
          40.95979208408607,
          32.14768923075563
        ]
      }
    },
    {
      "type": "Feature",
      "properties": {
        "norad_id": 33982,
        "name": "COSMOS 2251 DEB",
        "group": "cosmos-2251-debris",
        "lat": -26.700122051911595,
        "lon": -37.11995719034098,
        "alt_km": 656.0419683089294,
        "timestamp": "2025-12-27T20:30:59.673205+00:00",
        "meta_object_name": "COSMOS 2251 DEB",
        "meta_object_id": "1993-036FR",
        "meta_epoch": "2025-12-27T08:00:32.602752",
        "meta_mean_motion": 14.6028315,
        "meta_eccentricity": 0.0075613,
        "meta_inclination": 74.0713,
        "meta_ra_of_asc_node": 332.1308,
        "meta_arg_of_pericenter": 12.6013,
        "meta_mean_anomaly": 101.6425,
        "meta_ephemeris_type": 0,
        "meta_classification_type": "U",
        "meta_norad_cat_id": 33982,
        "meta_element_set_no": 999,
        "meta_rev_at_epoch": 89372,
        "meta_bstar": 0.00068802,
        "meta_mean_motion_dot": 3.429e-05,
        "meta_mean_motion_ddot": 0,
        "tle_line1": "1 33982U 93036FR  25361.33371068  .00003429  00000+0  68802-3 0  9998",
        "tle_line2": "2 33982  74.0713 332.1308 0075613  12.6013 101.6425 14.60283150893722"
      },
      "geometry": {
        "type": "Point",
        "coordinates": [
          -37.11995719034098,
          -26.700122051911595
        ]
      }
    },
    {
      "type": "Feature",
      "properties": {
        "norad_id": 33983,
        "name": "COSMOS 2251 DEB",
        "group": "cosmos-2251-debris",
        "lat": 67.69583716822325,
        "lon": -105.54275128143479,
        "alt_km": 722.452404496692,
        "timestamp": "2025-12-27T20:30:59.673215+00:00",
        "meta_object_name": "COSMOS 2251 DEB",
        "meta_object_id": "1993-036FS",
        "meta_epoch": "2025-12-27T12:06:48.453408",
        "meta_mean_motion": 14.50734189,
        "meta_eccentricity": 0.0021047,
        "meta_inclination": 74.0504,
        "meta_ra_of_asc_node": 119.3134,
        "meta_arg_of_pericenter": 220.9019,
        "meta_mean_anomaly": 217.2199,
        "meta_ephemeris_type": 0,
        "meta_classification_type": "U",
        "meta_norad_cat_id": 33983,
        "meta_element_set_no": 999,
        "meta_rev_at_epoch": 88843,
        "meta_bstar": 0.00066032,
        "meta_mean_motion_dot": 2.577e-05,
        "meta_mean_motion_ddot": 0,
        "tle_line1": "1 33983U 93036FS  25361.50472747  .00002577  00000+0  66032-3 0  9990",
        "tle_line2": "2 33983  74.0504 119.3134 0021047 220.9019 217.2199 14.50734189888431"
      },
      "geometry": {
        "type": "Point",
        "coordinates": [
          -105.54275128143479,
          67.69583716822325
        ]
      }
    },
    {
      "type": "Feature",
      "properties": {
        "norad_id": 33984,
        "name": "COSMOS 2251 DEB",
        "group": "cosmos-2251-debris",
        "lat": -12.84783308267953,
        "lon": -45.83728827751442,
        "alt_km": 691.6309283381534,
        "timestamp": "2025-12-27T20:30:59.673225+00:00",
        "meta_object_name": "COSMOS 2251 DEB",
        "meta_object_id": "1993-036FT",
        "meta_epoch": "2025-12-27T08:12:26.906112",
        "meta_mean_motion": 14.66493256,
        "meta_eccentricity": 0.0022377,
        "meta_inclination": 74.0096,
        "meta_ra_of_asc_node": 318.9026,
        "meta_arg_of_pericenter": 152.4294,
        "meta_mean_anomaly": 7.8104,
        "meta_ephemeris_type": 0,
        "meta_classification_type": "U",
        "meta_norad_cat_id": 33984,
        "meta_element_set_no": 999,
        "meta_rev_at_epoch": 89280,
        "meta_bstar": 0.00098923,
        "meta_mean_motion_dot": 5.474e-05,
        "meta_mean_motion_ddot": 0,
        "tle_line1": "1 33984U 93036FT  25361.34197808  .00005474  00000+0  98923-3 0  9998",
        "tle_line2": "2 33984  74.0096 318.9026 0022377 152.4294   7.8104 14.66493256892805"
      },
      "geometry": {
        "type": "Point",
        "coordinates": [
          -45.83728827751442,
          -12.84783308267953
        ]
      }
    }
  ]
}